[
  {
    "name": "MEV-2",
    "line1": "1 46113U 20056B   26171.39181049 -.00000016  00000+0  00000+0 0  9996",
    "line2": "2 46113   0.0164 305.9154 0000101 152.4907 310.2364  1.00270649 80584"
  },
  {
    "name": "GALAXY 30 (G-30)",
    "line1": "1 46114U 20056C   26171.39489199  .00000032  00000+0  00000+0 0  9991",
    "line2": "2 46114   0.0183  12.9122 0002284  75.3591 197.4940  1.00273107 21326"
  },
  {
    "name": "GAOFEN-13 01",
    "line1": "1 46610U 20071A   26172.91258433 -.00000363  00000+0  00000+0 0  9991",
    "line2": "2 46610   0.5345  84.8388 0041360 123.4638 148.5091  1.00268505 20968"
  },
  {
    "name": "TIANTONG-1 2",
    "line1": "1 46916U 20082A   26172.23031074 -.00000358  00000+0  00000+0 0  9991",
    "line2": "2 46916   0.7848 328.1695 0001133 115.6613  33.3919  1.00267638 20698"
  },
  {
    "name": "LUCAS (JDRS-1)",
    "line1": "1 47202U 20089A   26171.40996537 -.00000239  00000+0  00000+0 0  9997",
    "line2": "2 47202   0.0494 274.3402 0002347 151.9999  80.6439  1.00269176 20458"
  },
  {
    "name": "SXM-7",
    "line1": "1 47240U 20096A   26171.38377977 -.00000209  00000+0  00000+0 0  9992",
    "line2": "2 47240   0.0324 103.0766 0003937  23.9681 194.5424  1.00266556  7470"
  },
  {
    "name": "CMS-01",
    "line1": "1 47256U 20099A   26171.40840537 -.00000169  00000+0  00000+0 0  9997",
    "line2": "2 47256   0.0154  78.5042 0003485 201.8183 218.3086  1.00270928 20239"
  },
  {
    "name": "TURKSAT 5A",
    "line1": "1 47306U 21001A   26171.25552352  .00000149  00000+0  00000+0 0  9992",
    "line2": "2 47306   0.0171  61.0853 0000186 297.9813  32.3204  1.00271694 19990"
  },
  {
    "name": "TIANTONG-1 3",
    "line1": "1 47321U 21003A   26172.54885609 -.00000156  00000+0  00000+0 0  9997",
    "line2": "2 47321   1.7523 339.6373 0003142 114.2534  94.9493  1.00269921 20001"
  },
  {
    "name": "TJS-6",
    "line1": "1 47613U 21010A   26172.42545174  .00000041  00000+0  00000+0 0  9998",
    "line2": "2 47613   0.2382 263.7649 0003014 225.1211 112.3612  1.00270790 19841"
  },
  {
    "name": "SBIRS GEO-5 (USA 315)",
    "line1": "1 48618U 21042A   26171.41057205 -.00000275  00000+0  00000+0 0  9990",
    "line2": "2 48618   5.0991 329.1630 0001463 120.1566  60.9118  1.00271391 18808"
  },
  {
    "name": "FENGYUN 4B",
    "line1": "1 48808U 21047A   26172.55343015 -.00000332  00000+0  00000+0 0  9993",
    "line2": "2 48808   0.1647  78.1229 0005927 276.9641 218.5870  1.00275001 18618"
  },
  {
    "name": "SXM-8",
    "line1": "1 48838U 21049A   26171.32544868 -.00000210  00000+0  00000+0 0  9996",
    "line2": "2 48838   0.0192  19.7196 0005064  11.6595 269.1643  1.00271411 18614"
  },
  {
    "name": "TIANLIAN 1-05",
    "line1": "1 49011U 21063A   26171.89432105  .00000104  00000+0  00000+0 0  9999",
    "line2": "2 49011   1.6045  80.6811 0000581 349.1913 177.9819  1.00272457 18112"
  },
  {
    "name": "STAR ONE D2",
    "line1": "1 49055U 21069A   26169.80975734  .00000000  00000+0  00000+0 0  9996",
    "line2": "2 49055   0.0153 340.0202 0002032 132.6885  15.7458  1.00270132 17964"
  },
  {
    "name": "ZHONGXING-2E",
    "line1": "1 49062U 21071A   26171.41126538 -.00000296  00000+0  00000+0 0  9995",
    "line2": "2 49062   0.0209 225.1100 0001673 266.6751  22.9587  1.00272973 18075"
  },
  {
    "name": "TJS-7",
    "line1": "1 49115U 21077A   26172.65554318 -.00000125  00000+0  00000+0 0  9999",
    "line2": "2 49115   0.3427 264.9653 0003566 117.0822  24.2691  1.00277933  9593"
  },
  {
    "name": "CHINASAT 9B",
    "line1": "1 49125U 21080A   26172.55273683 -.00000314  00000+0  00000+0 0  9996",
    "line2": "2 49125   0.0330 262.4533 0002119 209.8830  97.7954  1.00273166 17697"
  },
  {
    "name": "SHIJIAN-21 (SJ-21)",
    "line1": "1 49330U 21094A   26171.49129501 -.00000353  00000+0  00000+0 0  9993",
    "line2": "2 49330   5.1217  61.1679 0049654 168.2525 344.1673  1.00269328  5390"
  },
  {
    "name": "SES-17",
    "line1": "1 49332U 21095A   26169.59643572 -.00000278  00000+0  00000+0 0  9999",
    "line2": "2 49332   0.0267  40.8266 0000811  45.0665 328.5524  1.00269036 17868"
  },
  {
    "name": "SYRACUSE 4A",
    "line1": "1 49333U 21095B   26170.26038110  .00000129  00000+0  00000+0 0  9996",
    "line2": "2 49333   0.0178  11.5381 0001635  69.1185 326.0593  1.00268750 17964"
  },
  {
    "name": "QZS-1R (MICHIBIKI-1R)",
    "line1": "1 49336U 21096A   26170.63258758 -.00000290  00000+0  00000+0 0  9993",
    "line2": "2 49336  37.4674  79.5460 0754800 271.8525 278.0167  1.00254705 17039"
  },
  {
    "name": "ZHONGXING-1D",
    "line1": "1 49505U 21114A   26172.91492434 -.00000336  00000+0  00000+0 0  9997",
    "line2": "2 49505   0.0408 166.9763 0000282  28.8668 173.7879  1.00275060 16869"
  },
  {
    "name": "STPSAT-6",
    "line1": "1 49817U 21118A   26171.44628338 -.00000050  00000+0  00000+0 0  9991",
    "line2": "2 49817   0.3304  85.3568 0001185 256.6364 335.6712  1.00269666 16609"
  },
  {
    "name": "EXPRESS AMU-7",
    "line1": "1 50001U 21123A   26172.91787103 -.00000242  00000+0  00000+0 0  9996",
    "line2": "2 50001   0.0163 288.9404 0000038 247.1321 209.4669  1.00272286 16588"
  },
  {
    "name": "EXPRESS AMU-3",
    "line1": "1 50002U 21123B   26171.96648715  .00000000  00000+0  00000+0 0  9997",
    "line2": "2 50002   0.0209 335.7514 0000400 303.9567  80.2873  1.00269559  7074"
  },
  {
    "name": "TIANLIAN 2-02",
    "line1": "1 50005U 21124A   26172.85165248 -.00000013  00000+0  00000+0 0  9990",
    "line2": "2 50005   0.8148  86.0573 0001195 167.1157 134.4235  1.00281719 16666"
  },
  {
    "name": "TURKSAT 5B",
    "line1": "1 50212U 21126A   26170.11708522  .00000140  00000+0  00000+0 0  9997",
    "line2": "2 50212   0.0673 343.7991 0003234  12.4246 355.2631  1.00271147 16314"
  },
  {
    "name": "INMARSAT 6-F1",
    "line1": "1 50319U 21128A   26169.84022277 -.00000178  00000+0  00000+0 0  9993",
    "line2": "2 50319   0.0186 327.5438 0000303 244.7765  80.9907  1.00270212 16272"
  }
]